OBJECT_NAME,OBJECT_ID,EPOCH,MEAN_MOTION,ECCENTRICITY,INCLINATION,RA_OF_ASC_NODE,ARG_OF_PERICENTER,MEAN_ANOMALY,EPHEMERIS_TYPE,CLASSIFICATION_TYPE,NORAD_CAT_ID,ELEMENT_SET_NO,REV_AT_EPOCH,BSTAR,MEAN_MOTION_DOT,MEAN_MOTION_DDOT
YAMAL 401,2014-082A,2026-07-11T20:49:49.855296,1.00268336,.00002768,0.0368,210.1789,89.4116,32.5659,0,U,40345,999,4216,0,-.223E-5,0
ASTRA 2G,2014-089A,2026-07-12T03:22:40.902816,1.00273727,.0004226,0.0486,18.4025,59.6491,290.8722,0,U,40364,999,4221,0,.153E-5,0
FENGYUN 2G,2014-090A,2026-07-11T22:47:21.537312,1.00261523,.0004315,5.6976,72.5145,151.9124,146.5618,0,U,40367,999,4224,0,-.3E-5,0
MUOS-3,2015-002A,2026-07-11T20:19:40.556352,1.00269928,.00532851,4.5670,43.6179,177.3851,358.1293,0,U,40374,999,4183,0,-.129E-5,0
INMARSAT 5-F2,2015-005A,2026-07-11T16:42:56.451744,1.00271260,.00003975,0.0181,27.6567,76.2060,21.4670,0,U,40384,999,4124,0,-.281E-5,0
ABS-3A,2015-010A,2026-07-11T15:15:19.657152,1.00269802,.00017024,0.0137,33.0917,26.7688,95.5236,0,U,40424,999,4162,0,-.22E-6,0
EUTELSAT 115 WEST B,2015-010B,2026-07-11T08:51:54.107136,1.00270364,.00001726,0.0105,116.1654,350.3010,200.8914,0,U,40425,999,4162,0,-.18E-6,0
EXPRESS-AM7,2015-012A,2026-07-12T03:26:10.567968,1.00268895,.0002672,0.0274,43.1374,78.2080,260.2417,0,U,40505,999,4125,0,0,0
BEIDOU-3S IGSO-1S,2015-019A,2026-07-02T19:12:21.705408,1.00680073,.00768606,49.1798,295.2769,219.1125,144.2493,0,U,40549,999,4123,0,-.19E-5,0
THOR 7,2015-022A,2026-07-12T03:14:34.181376,1.00271087,.0002293,0.0152,91.7894,22.0798,224.1404,0,U,40613,999,4106,0,-.6E-7,0
TURKMENALEM52E/MONACOSAT,2015-023A,2026-07-12T03:29:32.744832,1.00269867,.0002573,0.0229,79.5644,40.6117,274.2606,0,U,40617,999,4109,0,.107E-5,0
DIRECTV 15,2015-026A,2026-07-12T02:45:25.225920,1.00271732,.0000203,0.0198,71.5918,199.4156,317.4885,0,U,40663,999,4071,0,-.1E-5,0
SKY MEXICO-1,2015-026B,2026-07-12T02:52:17.067072,1.00270854,.0002311,0.0171,13.0234,121.6852,119.5807,0,U,40664,999,4070,0,-.231E-5,0
METEOSAT-11 (MSG-4),2015-034A,2026-07-12T03:17:26.405088,1.00270906,.0002235,3.2619,70.9539,353.1740,284.5149,0,U,40732,999,746,0,.61E-6,0
STAR ONE C4,2015-034B,2026-07-12T01:12:07.900416,1.00270177,.0001317,0.0242,343.3824,106.3949,148.2056,0,U,40733,999,4026,0,-.262E-5,0
WGS F7 (USA 263),2015-036A,2026-07-11T14:16:38.644608,1.00271951,.0000739,0.0462,70.1813,135.2251,113.2409,0,U,40746,999,4011,0,0,0
INTELSAT 34 (IS-34),2015-039A,2026-07-12T02:58:58.174752,1.00271628,.0000395,0.0109,7.8780,341.4074,289.9886,0,U,40874,999,3988,0,-.283E-5,0
EUTELSAT 8 WEST B,2015-039B,2026-07-12T03:12:26.883072,1.00271686,.0003891,0.0658,342.0883,122.9370,225.1149,0,U,40875,999,3990,0,-.63E-6,0
GSAT-6,2015-041A,2026-07-12T03:29:38.637312,1.00273655,.0003043,1.9818,82.2851,25.1420,317.5007,0,U,40880,999,3984,0,-.16E-5,0
INMARSAT 5-F3,2015-042A,2026-07-11T17:50:00.041856,1.00272607,.0000474,0.0184,33.2673,145.0710,198.3932,0,U,40882,999,3981,0,.55E-6,0
MUOS-4,2015-044A,2026-07-12T03:32:21.444288,1.00271127,.0056551,4.3750,42.3726,3.3502,12.3959,0,U,40887,999,3981,0,-.93E-6,0
TJS-1,2015-046A,2026-07-12T04:42:38.764800,1.00273008,.0004932,0.3852,84.7651,17.5231,53.4859,0,U,40892,999,3982,0,-.154E-5,0
EXPRESS-AM8,2015-048A,2026-07-12T04:53:26.195424,1.00268928,.0000395,0.0144,326.3743,339.7364,43.3410,0,U,40895,999,3959,0,-.11E-5,0
BEIDOU-3S IGSO-2S,2015-053A,2026-07-11T15:42:50.226336,1.00253704,.00663477,49.1834,258.4907,193.2506,167.1648,0,U,40938,999,3960,0,-.91E-6,0
SKY MUSTER 1 (NBN1A),2015-054A,2026-07-10T04:00:26.006688,1.00270506,.0001543,0.0185,10.4231,99.4198,18.6038,0,U,40940,999,3949,0,0,0
ARSAT 2,2015-054B,2026-07-12T02:51:39.628224,1.00270924,.0001832,0.0427,284.0638,181.2020,146.6679,0,U,40941,999,3955,0,-.222E-5,0
MORELOS 3,2015-056A,2026-07-12T05:43:18.555744,1.00272500,.0000335,3.2075,15.7102,119.5759,127.5797,0,U,40946,999,3953,0,-.43E-6,0
APSTAR-9,2015-059A,2026-07-12T04:50:38.704704,1.00272726,.0003014,0.0183,33.0199,154.9888,316.7552,0,U,40982,999,3937,0,-.263E-5,0
TURKSAT 4B,2015-060A,2026-07-12T03:29:02.794272,1.00271236,.000235,0.0177,32.6041,87.0173,272.6403,0,U,40984,999,3934,0,.118E-5,0
ZHONGXING-2C,2015-063A,2026-07-12T02:42:21.676032,1.00273232,.0007967,0.3343,88.8009,100.4519,244.7800,0,U,41021,999,3922,0,-.321E-5,0
GSAT-15,2015-065A,2026-07-12T03:29:38.637312,1.00269124,.000355,0.0230,46.4211,46.1893,343.3564,0,U,41028,999,3904,0,0,0
BADR-7 (ARABSAT-6B),2015-065B,2026-07-12T03:22:10.951392,1.00272510,.0004799,0.0069,157.5278,46.4758,162.5598,0,U,41029,999,3901,0,.147E-5,0
