YAMAL 401               
1 40345U 14082A   26192.86793814 -.00000223  00000+0  00000+0 0  9993
2 40345   0.0368 210.1789 0000276  89.4116  32.5659  1.00268336 42169
ASTRA 2G                
1 40364U 14089A   26193.14075119  .00000153  00000+0  00000+0 0  9995
2 40364   0.0486  18.4025 0004226  59.6491 290.8722  1.00273727 42213
FENGYUN 2G              
1 40367U 14090A   26192.94955483 -.00000300  00000+0  00000+0 0  9993
2 40367   5.6976  72.5145 0004315 151.9124 146.5618  1.00261523 42248
MUOS-3                  
1 40374U 15002A   26192.84699718 -.00000129  00000+0  00000+0 0  9999
2 40374   4.5670  43.6179 0053285 177.3851 358.1293  1.00269928 41831
INMARSAT 5-F2           
1 40384U 15005A   26192.69648671 -.00000281  00000+0  00000+0 0  9997
2 40384   0.0181  27.6567 0000397  76.2060  21.4670  1.00271260 41244
ABS-3A                  
1 40424U 15010A   26192.63564418 -.00000022  00000+0  00000+0 0  9991
2 40424   0.0137  33.0917 0001702  26.7688  95.5236  1.00269802 41628
EUTELSAT 115 WEST B     
1 40425U 15010B   26192.36937624 -.00000018  00000+0  00000+0 0  9990
2 40425   0.0105 116.1654 0000172 350.3010 200.8914  1.00270364 41629
EXPRESS-AM7             
1 40505U 15012A   26193.14317787  .00000000  00000+0  00000+0 0  9990
2 40505   0.0274  43.1374 0002672  78.2080 260.2417  1.00268895 41256
BEIDOU-3S IGSO-1S       
1 40549U 15019A   26183.80025122 -.00000190  00000+0  00000+0 0  9997
2 40549  49.1798 295.2769 0076860 219.1125 144.2493  1.00680073 41232
THOR 7                  
1 40613U 15022A   26193.13511784 -.00000006  00000+0  00000+0 0  9990
2 40613   0.0152  91.7894 0002293  22.0798 224.1404  1.00271087 41060
TURKMENALEM52E/MONACOSAT
1 40617U 15023A   26193.14551788  .00000107  00000+0  00000+0 0  9995
2 40617   0.0229  79.5644 0002573  40.6117 274.2606  1.00269867 41094
DIRECTV 15              
1 40663U 15026A   26193.11487530 -.00000100  00000+0  00000+0 0  9993
2 40663   0.0198  71.5918 0000203 199.4156 317.4885  1.00271732 40711
SKY MEXICO-1            
1 40664U 15026B   26193.11964198 -.00000231  00000+0  00000+0 0  9999
2 40664   0.0171  13.0234 0002311 121.6852 119.5807  1.00270854 40705
METEOSAT-11 (MSG-4)     
1 40732U 15034A   26193.13711117  .00000061  00000+0  00000+0 0  9997
2 40732   3.2619  70.9539 0002235 353.1740 284.5149  1.00270906  7462
STAR ONE C4             
1 40733U 15034B   26193.05009144 -.00000262  00000+0  00000+0 0  9993
2 40733   0.0242 343.3824 0001317 106.3949 148.2056  1.00270177 40261
WGS F7 (USA 263)        
1 40746U 15036A   26192.59489172  .00000000  00000+0  00000+0 0  9999
2 40746   0.0462  70.1813 0000739 135.2251 113.2409  1.00271951 40115
INTELSAT 34 (IS-34)     
1 40874U 15039A   26193.12428443 -.00000283  00000+0  00000+0 0  9992
2 40874   0.0109   7.8780 0000395 341.4074 289.9886  1.00271628 39880
EUTELSAT 8 WEST B       
1 40875U 15039B   26193.13364448 -.00000063  00000+0  00000+0 0  9994
2 40875   0.0658 342.0883 0003891 122.9370 225.1149  1.00271686 39904
GSAT-6                  
1 40880U 15041A   26193.14558608 -.00000160  00000+0  00000+0 0  9995
2 40880   1.9818  82.2851 0003043  25.1420 317.5007  1.00273655 39845
INMARSAT 5-F3           
1 40882U 15042A   26192.74305604  .00000055  00000+0  00000+0 0  9991
2 40882   0.0184  33.2673 0000474 145.0710 198.3932  1.00272607 39815
MUOS-4                  
1 40887U 15044A   26193.14747042 -.00000093  00000+0  00000+0 0  9992
2 40887   4.3750  42.3726 0056551   3.3502  12.3959  1.00271127 39818
TJS-1                   
1 40892U 15046A   26193.19628200 -.00000154  00000+0  00000+0 0  9997
2 40892   0.3852  84.7651 0004932  17.5231  53.4859  1.00273008 39828
EXPRESS-AM8             
1 40895U 15048A   26193.20377541 -.00000110  00000+0  00000+0 0  9995
2 40895   0.0144 326.3743 0000395 339.7364  43.3410  1.00268928 39594
BEIDOU-3S IGSO-2S       
1 40938U 15053A   26192.65474799 -.00000091  00000+0  00000+0 0  9998
2 40938  49.1834 258.4907 0066347 193.2506 167.1648  1.00253704 39605
SKY MUSTER 1 (NBN1A)    
1 40940U 15054A   26191.16696767  .00000000  00000+0  00000+0 0  9997
2 40940   0.0185  10.4231 0001543  99.4198  18.6038  1.00270506 39499
ARSAT 2                 
1 40941U 15054B   26193.11920866 -.00000222  00000+0  00000+0 0  9992
2 40941   0.0427 284.0638 0001832 181.2020 146.6679  1.00270924 39558
MORELOS 3               
1 40946U 15056A   26193.23840921 -.00000043  00000+0  00000+0 0  9996
2 40946   3.2075  15.7102 0000335 119.5759 127.5797  1.00272500 39531
APSTAR-9                
1 40982U 15059A   26193.20183686 -.00000263  00000+0  00000+0 0  9998
2 40982   0.0183  33.0199 0003014 154.9888 316.7552  1.00272726 39371
TURKSAT 4B              
1 40984U 15060A   26193.14517123  .00000118  00000+0  00000+0 0  9990
2 40984   0.0177  32.6041 0002350  87.0173 272.6403  1.00271236 39349
ZHONGXING-2C            
1 41021U 15063A   26193.11275088 -.00000321  00000+0  00000+0 0  9991
2 41021   0.3343  88.8009 0007967 100.4519 244.7800  1.00273232 39226
GSAT-15                 
1 41028U 15065A   26193.14558608  .00000000  00000+0  00000+0 0  9998
2 41028   0.0230  46.4211 0003550  46.1893 343.3564  1.00269124 39043
BADR-7 (ARABSAT-6B)     
1 41029U 15065B   26193.14040453  .00000147  00000+0  00000+0 0  9995
2 41029   0.0069 157.5278 0004799  46.4758 162.5598  1.00272510 39018
